0 IRIDIUM 33 DEB
1 33967U 97051CC  13282.12368804  .00007726  00000-0  22926-2 0  3953
2 33967 086.3999 128.2901 0034255 339.6019 170.5958 14.42851602243981
0 IRIDIUM 33 DEB
1 33967U 97051CC  13283.42600749  .00007760  00000-0  23022-2 0  3961
2 33967 086.4000 127.7387 0033987 335.6422 094.8834 14.42869150244172
0 IRIDIUM 33 DEB
1 33967U 97051CC  13286.14426903  .00006116  00000-0  18128-2 0  3988
2 33967 086.3996 126.5875 0033446 327.1983 174.0130 14.42897709244566
0 IRIDIUM 33 DEB
1 33967U 97051CC  13287.51584220  .00006716  00000-0  19908-2 0  3991
2 33967 086.3990 126.0066 0033180 322.8941 098.3583 14.42910706244763
0 IRIDIUM 33 DEB
1 33967U 97051CC  13288.83305907  .00009152  00000-0  27130-2 0  4006
2 33967 086.3983 125.4487 0032907 318.7591 100.4610 14.42936249244953
0 IRIDIUM 33 DEB
1 33967U 97051CC  13290.09798709  .00008437  00000-0  25001-2 0  4014
2 33967 086.3978 124.9127 0032693 314.6288 191.2024 14.42951645245137
0 IRIDIUM 33 DEB
1 33967U 97051CC  13291.32826106  .00008074  00000-0  23920-2 0  4020
2 33967 086.3976 124.3914 0032466 310.7096 101.9121 14.42968321245310
0 IRIDIUM 33 DEB
1 33967U 97051CC  13292.43640383  .00007614  00000-0  22549-2 0  4030
2 33967 086.3976 123.9220 0032247 307.0636 098.3812 14.42983202245479
0 IRIDIUM 33 DEB
1 33967U 97051CC  13293.48053544  .00008238  00000-0  24394-2 0  4047
2 33967 086.3978 123.4796 0032116 303.6050 122.4085 14.42996660245621
0 IRIDIUM 33 DEB
1 33967U 97051CC  13294.51874782  .00009202  00000-0  27247-2 0  4050
2 33967 086.3981 123.0398 0031928 300.1584 115.7456 14.43008931245772
0 IRIDIUM 33 DEB
1 33967U 97051CC  13295.84573434  .00009932  00000-0  29401-2 0  4062
2 33967 086.3982 122.4773 0031763 295.9220 169.1227 14.43028210245960
